[Satellite]
VERSION=1.1
NAME=QB50P2
NICKNAME=QB50P2
TLE1=1 40032U 14033Y   20157.74145966  .00000219  00000-0  29468-4 0  9992
TLE2=2 40032  97.9043  79.5473 0011401 342.0646  18.0167 14.88662729323767
STATUS=0
